-- MySQL dump 10.13  Distrib 8.0.16, for Win64 (x86_64)
--
-- Host: localhost    Database: airnoise
-- ------------------------------------------------------
-- Server version	5.7.25-log

/*!40101 SET @OLD_CHARACTER_SET_CLIENT=@@CHARACTER_SET_CLIENT */;
/*!40101 SET @OLD_CHARACTER_SET_RESULTS=@@CHARACTER_SET_RESULTS */;
/*!40101 SET @OLD_COLLATION_CONNECTION=@@COLLATION_CONNECTION */;
 SET NAMES utf8 ;
/*!40103 SET @OLD_TIME_ZONE=@@TIME_ZONE */;
/*!40103 SET TIME_ZONE='+00:00' */;
/*!40014 SET @OLD_UNIQUE_CHECKS=@@UNIQUE_CHECKS, UNIQUE_CHECKS=0 */;
/*!40014 SET @OLD_FOREIGN_KEY_CHECKS=@@FOREIGN_KEY_CHECKS, FOREIGN_KEY_CHECKS=0 */;
/*!40101 SET @OLD_SQL_MODE=@@SQL_MODE, SQL_MODE='NO_AUTO_VALUE_ON_ZERO' */;
/*!40111 SET @OLD_SQL_NOTES=@@SQL_NOTES, SQL_NOTES=0 */;

--
-- Dumping data for table `measurements`
--

LOCK TABLES `measurements` WRITE;
/*!40000 ALTER TABLE `measurements` DISABLE KEYS */;
INSERT INTO `measurements` (`id_measurement`, `url`, `id_aircraft`, `id_quality`, `id_runway`, `metar`, `description`) VALUES (1,'D:\\Luis Alejandro\\Doctorate (Ph.D)\\Data\\Measurements (Ph.D)\\2013-03-23\\2.tdms',1,1,1,'SPECI MMMX 231445Z 18004KT 10SM SKC 20/M03 A3032 NOSIG RMK HZY=','(XA-KNO) Birds all the time.'),(2,'D:\\Luis Alejandro\\Doctorate (Ph.D)\\Data\\Measurements (Ph.D)\\2013-03-23\\3.tdms',6,2,1,'SPECI MMMX 231445Z 18004KT 10SM SKC 20/M03 A3032 NOSIG RMK HZY=','(XA-TRI) Birds at the beginning, truck in the middle and birds and wind at the end with other low noises.'),(3,'D:\\Luis Alejandro\\Doctorate (Ph.D)\\Data\\Measurements (Ph.D)\\2013-03-23\\4.tdms',8,3,2,'METAR MMMX 231448Z 18007KT 10SM SKC 20/M03 A3032 NOSIG RMK SLP080 52017 928 HZY=','(XA-VIL) Car at the beginning and aircraft close taxiing all the time. Very bad quality.'),(4,'D:\\Luis Alejandro\\Doctorate (Ph.D)\\Data\\Measurements (Ph.D)\\2013-03-23\\5.tdms',11,2,1,'METAR MMMX 231448Z 18007KT 10SM SKC 20/M03 A3032 NOSIG RMK SLP080 52017 928 HZY=','(XA-WAC) Low noises at the beginning, aircraft taxiing all time.'),(5,'D:\\Luis Alejandro\\Doctorate (Ph.D)\\Data\\Measurements (Ph.D)\\2013-03-23\\6.tdms',2,2,1,'METAR MMMX 231448Z 18007KT 10SM SKC 20/M03 A3032 NOSIG RMK SLP080 52017 928 HZY=','(N431UA) Aircraft taxiing all time, car at the end.'),(6,'D:\\Luis Alejandro\\Doctorate (Ph.D)\\Data\\Measurements (Ph.D)\\2013-03-23\\8.tdms',1,1,1,'METAR MMMX 231448Z 18007KT 10SM SKC 20/M03 A3032 NOSIG RMK SLP080 52017 928 HZY=','(XA-UHE) Birds at the beginning and impulsive noise as well as at the end.'),(7,'D:\\Luis Alejandro\\Doctorate (Ph.D)\\Data\\Measurements (Ph.D)\\2013-03-23\\9.tdms',15,1,1,'METAR MMMX 231448Z 18007KT 10SM SKC 20/M03 A3032 NOSIG RMK SLP080 52017 928 HZY=','(CUT1702) Dog barks and car at the beginning and birds all time.'),(8,'D:\\Luis Alejandro\\Doctorate (Ph.D)\\Data\\Measurements (Ph.D)\\2013-03-23\\10.tdms',13,1,1,'METAR MMMX 231448Z 18007KT 10SM SKC 20/M03 A3032 NOSIG RMK SLP080 52017 928 HZY=','(XA-ACJ) Birds all time.'),(9,'D:\\Luis Alejandro\\Doctorate (Ph.D)\\Data\\Measurements (Ph.D)\\2013-03-23\\11.tdms',2,1,1,'METAR MMMX 231448Z 18007KT 10SM SKC 20/M03 A3032 NOSIG RMK SLP080 52017 928 HZY=','(XA-VOX) Birds and light wind at the beginning.'),(10,'D:\\Luis Alejandro\\Doctorate (Ph.D)\\Data\\Measurements (Ph.D)\\2013-03-23\\12.tdms',10,2,1,'METAR MMMX 231448Z 18007KT 10SM SKC 20/M03 A3032 NOSIG RMK SLP080 52017 928 HZY=','(N855AM) Birds at the beginning, impulse noise at the middle and aircraft taxing all time.'),(11,'D:\\Luis Alejandro\\Doctorate (Ph.D)\\Data\\Measurements (Ph.D)\\2013-03-23\\13.tdms',11,1,1,'METAR MMMX 231448Z 18007KT 10SM SKC 20/M03 A3032 NOSIG RMK SLP080 52017 928 HZY=','(XA-LLI) Birds all time and impulsive noises.'),(12,'D:\\Luis Alejandro\\Doctorate (Ph.D)\\Data\\Measurements (Ph.D)\\2013-03-23\\14.tdms',1,1,1,'METAR MMMX 231448Z 18007KT 10SM SKC 20/M03 A3032 NOSIG RMK SLP080 52017 928 HZY=','(XA-IJA) Birds all time and aircraft taxiing far away.'),(13,'D:\\Luis Alejandro\\Doctorate (Ph.D)\\Data\\Measurements (Ph.D)\\2013-03-23\\15.tdms',1,1,1,'METAR MMMX 231448Z 18007KT 10SM SKC 20/M03 A3032 NOSIG RMK SLP080 52017 928 HZY=','(XA-VFI) Birds all time and dog barks.'),(14,'D:\\Luis Alejandro\\Doctorate (Ph.D)\\Data\\Measurements (Ph.D)\\2013-03-23\\16.tdms',1,1,1,'METAR MMMX 231448Z 18007KT 10SM SKC 20/M03 A3032 NOSIG RMK SLP080 52017 928 HZY=','(XA-ZIH) Dog barks, birds all time and wind at the beginning.'),(15,'D:\\Luis Alejandro\\Doctorate (Ph.D)\\Data\\Measurements (Ph.D)\\2013-09-13\\1.tdms',3,1,1,'METAR MMMX 131344Z 34005KT 8SM FEW015 BKN020 OVC070 16/11 A3014 NOSIG RMK 8/87/ HZY VC PCPN 1QUAD=','(LY-VET) Birds and wind all time and voices at the very end.'),(16,'D:\\Luis Alejandro\\Doctorate (Ph.D)\\Data\\Measurements (Ph.D)\\2013-09-13\\2.tdms',9,1,1,'METAR MMMX 131344Z 34005KT 8SM FEW015 BKN020 OVC070 16/11 A3014 NOSIG RMK 8/87/ HZY VC PCPN 1QUAD=','(N864NN) Dog barks.'),(17,'D:\\Luis Alejandro\\Doctorate (Ph.D)\\Data\\Measurements (Ph.D)\\2013-09-13\\4.tdms',1,1,1,'METAR MMMX 131423Z 34009KT 8SM FEW015 BKN020 OVC080 16/11 A3014 NOSIG RMK 8/87/ HZY PCPN 3QUAD BINOVC=','(XA-BAV) Birds and dog barks at the beginning.'),(18,'D:\\Luis Alejandro\\Doctorate (Ph.D)\\Data\\Measurements (Ph.D)\\2013-09-13\\7.tdms',13,2,2,'METAR MMMX 131423Z 34009KT 8SM FEW015 BKN020 OVC080 16/11 A3014 NOSIG RMK 8/87/ HZY PCPN 3QUAD BINOVC=','(XA-BAC) Wind and dog barks at the beginning and a car very loud at the end.'),(19,'D:\\Luis Alejandro\\Doctorate (Ph.D)\\Data\\Measurements (Ph.D)\\2013-09-13\\8.tdms',4,2,1,'METAR MMMX 131423Z 34009KT 8SM FEW015 BKN020 OVC080 16/11 A3014 NOSIG RMK 8/87/ HZY PCPN 3QUAD BINOVC=','(XA-VOE) Moderate wind all time, impulsive noise in the middle and birds.'),(20,'D:\\Luis Alejandro\\Doctorate (Ph.D)\\Data\\Measurements (Ph.D)\\2013-09-13\\9.tdms',10,1,2,'METAR MMMX 131423Z 34009KT 8SM FEW015 BKN020 OVC080 16/11 A3014 NOSIG RMK 8/87/ HZY PCPN 3QUAD BINOVC=','(UNKOWN) There is no certainty of the aircraft class. Wind and dog barks.'),(21,'D:\\Luis Alejandro\\Doctorate (Ph.D)\\Data\\Measurements (Ph.D)\\2013-09-13\\10.tdms',10,3,1,'METAR MMMX 131423Z 34009KT 8SM FEW015 BKN020 OVC080 16/11 A3014 NOSIG RMK 8/87/ HZY PCPN 3QUAD BINOVC=','(UNKOWN) There is no certainty of the aircraft class. Dog barks and wind at the end.'),(22,'D:\\Luis Alejandro\\Doctorate (Ph.D)\\Data\\Measurements (Ph.D)\\2013-09-13\\11.tdms',13,1,1,'METAR MMMX 131423Z 34009KT 8SM FEW015 BKN020 OVC080 16/11 A3014 NOSIG RMK 8/87/ HZY PCPN 3QUAD BINOVC=','(XA-ACE) Wind and birds at the beginning and low noises at the end.'),(23,'D:\\Luis Alejandro\\Doctorate (Ph.D)\\Data\\Measurements (Ph.D)\\2013-09-13\\12.tdms',1,1,1,'METAR MMMX 131423Z 34009KT 8SM FEW015 BKN020 OVC080 16/11 A3014 NOSIG RMK 8/87/ HZY PCPN 3QUAD BINOVC=','(XA-ALM) Voices at the very beginning and at the very end.'),(24,'D:\\Luis Alejandro\\Doctorate (Ph.D)\\Data\\Measurements (Ph.D)\\2013-09-13\\13.tdms',10,2,2,'METAR MMMX 131423Z 34009KT 8SM FEW015 BKN020 OVC080 16/11 A3014 NOSIG RMK 8/87/ HZY PCPN 3QUAD BINOVC=','(XA-GOL) Wind, dog barks and impulsive noises.'),(25,'D:\\Luis Alejandro\\Doctorate (Ph.D)\\Data\\Measurements (Ph.D)\\2013-09-13\\14.tdms',1,1,1,'METAR MMMX 131452Z 35010KT 10SM FEW015 BKN020 BKN080 OVC200 17/11 A3014 NOSIG RMK SLP058 52005 967 8/837 HZY=','(XA-IJA) Low birds noise at the beginning, wind at the end.'),(26,'D:\\Luis Alejandro\\Doctorate (Ph.D)\\Data\\Measurements (Ph.D)\\2013-09-13\\16.tdms',2,1,1,'METAR MMMX 131452Z 35010KT 10SM FEW015 BKN020 BKN080 OVC200 17/11 A3014 NOSIG RMK SLP058 52005 967 8/837 HZY=','(N515VL) Car at the beginning and birds.'),(27,'D:\\Luis Alejandro\\Doctorate (Ph.D)\\Data\\Measurements (Ph.D)\\2013-09-13\\17.tdms',4,1,1,'METAR MMMX 131452Z 35010KT 10SM FEW015 BKN020 BKN080 OVC200 17/11 A3014 NOSIG RMK SLP058 52005 967 8/837 HZY=','(XA-VOA) Wind and low noises at the beginning.'),(28,'D:\\Luis Alejandro\\Doctorate (Ph.D)\\Data\\Measurements (Ph.D)\\2013-09-13\\18.tdms',1,2,1,'METAR MMMX 131452Z 35010KT 10SM FEW015 BKN020 BKN080 OVC200 17/11 A3014 NOSIG RMK SLP058 52005 967 8/837 HZY=','(XA-KNG) Aircraft taxiing all time and car at the beginning.'),(29,'D:\\Luis Alejandro\\Doctorate (Ph.D)\\Data\\Measurements (Ph.D)\\2013-09-13\\19.tdms',4,2,1,'METAR MMMX 131452Z 35010KT 10SM FEW015 BKN020 BKN080 OVC200 17/11 A3014 NOSIG RMK SLP058 52005 967 8/837 HZY=','(XA-VOD) Dog barks and aircraft taxiing.'),(30,'D:\\Luis Alejandro\\Doctorate (Ph.D)\\Data\\Measurements (Ph.D)\\2013-09-13\\20.tdms',9,1,1,'METAR MMMX 131452Z 35010KT 10SM FEW015 BKN020 BKN080 OVC200 17/11 A3014 NOSIG RMK SLP058 52005 967 8/837 HZY=','(N520AM) Light wind at the beginning.'),(31,'D:\\Luis Alejandro\\Doctorate (Ph.D)\\Data\\Measurements (Ph.D)\\2013-09-13\\21.tdms',1,2,1,'METAR MMMX 131452Z 35010KT 10SM FEW015 BKN020 BKN080 OVC200 17/11 A3014 NOSIG RMK SLP058 52005 967 8/837 HZY=','(XA-XII) Wind at the beginning and loud aircraft taxiing noise at the end.'),(32,'D:\\Luis Alejandro\\Doctorate (Ph.D)\\Data\\Measurements (Ph.D)\\2013-09-13\\22.tdms',1,1,1,'METAR MMMX 131452Z 35010KT 10SM FEW015 BKN020 BKN080 OVC200 17/11 A3014 NOSIG RMK SLP058 52005 967 8/837 HZY=','(XA-JMA) Wind at the beginning.'),(33,'D:\\Luis Alejandro\\Doctorate (Ph.D)\\Data\\Measurements (Ph.D)\\2013-09-13\\23.tdms',10,1,1,'METAR MMMX 131452Z 35010KT 10SM FEW015 BKN020 BKN080 OVC200 17/11 A3014 NOSIG RMK SLP058 52005 967 8/837 HZY=','(N308DE)'),(34,'D:\\Luis Alejandro\\Doctorate (Ph.D)\\Data\\Measurements (Ph.D)\\2013-09-13\\25.tdms',1,1,1,'METAR MMMX 131452Z 35010KT 10SM FEW015 BKN020 BKN080 OVC200 17/11 A3014 NOSIG RMK SLP058 52005 967 8/837 HZY=','(XA-ZIH) Birds and wind at the beginning and the end.'),(35,'D:\\Luis Alejandro\\Doctorate (Ph.D)\\Data\\Measurements (Ph.D)\\2013-09-13\\26.tdms',8,2,2,'METAR MMMX 131452Z 35010KT 10SM FEW015 BKN020 BKN080 OVC200 17/11 A3014 NOSIG RMK SLP058 52005 967 8/837 HZY=','(XA-VIK) Aircraft taxiing all time.'),(36,'D:\\Luis Alejandro\\Doctorate (Ph.D)\\Data\\Measurements (Ph.D)\\2013-09-13\\28.tdms',1,1,1,'METAR MMMX 131452Z 35010KT 10SM FEW015 BKN020 BKN080 OVC200 17/11 A3014 NOSIG RMK SLP058 52005 967 8/837 HZY=','(XA-VIP) Birds all time and car at the end.'),(37,'D:\\Luis Alejandro\\Doctorate (Ph.D)\\Data\\Measurements (Ph.D)\\2013-09-13\\29.tdms',1,1,1,'METAR MMMX 131452Z 35010KT 10SM FEW015 BKN020 BKN080 OVC200 17/11 A3014 NOSIG RMK SLP058 52005 967 8/837 HZY=','(XA-ACO) Birds all time and wind at the very end.'),(38,'D:\\Luis Alejandro\\Doctorate (Ph.D)\\Data\\Measurements (Ph.D)\\2013-09-13\\30.tdms',13,3,2,'METAR MMMX 131452Z 35010KT 10SM FEW015 BKN020 BKN080 OVC200 17/11 A3014 NOSIG RMK SLP058 52005 967 8/837 HZY=','(XA-ACC) Voice and cars travelling all time very close.'),(39,'D:\\Luis Alejandro\\Doctorate (Ph.D)\\Data\\Measurements (Ph.D)\\2013-09-13\\31.tdms',9,1,1,'METAR MMMX 131452Z 35010KT 10SM FEW015 BKN020 BKN080 OVC200 17/11 A3014 NOSIG RMK SLP058 52005 967 8/837 HZY=','(N14242) Birds.'),(40,'D:\\Luis Alejandro\\Doctorate (Ph.D)\\Data\\Measurements (Ph.D)\\2013-09-13\\32.tdms',12,1,1,'METAR MMMX 131452Z 35010KT 10SM FEW015 BKN020 BKN080 OVC200 17/11 A3014 NOSIG RMK SLP058 52005 967 8/837 HZY=','(XA-ACX) Voice at the beginning and moderate wind at the end.'),(41,'D:\\Luis Alejandro\\Doctorate (Ph.D)\\Data\\Measurements (Ph.D)\\2013-09-13\\33.tdms',13,1,1,'METAR MMMX 131452Z 35010KT 10SM FEW015 BKN020 BKN080 OVC200 17/11 A3014 NOSIG RMK SLP058 52005 967 8/837 HZY=','(XA-ACT)'),(42,'D:\\Luis Alejandro\\Doctorate (Ph.D)\\Data\\Measurements (Ph.D)\\2013-09-13\\34.tdms',13,2,1,'METAR MMMX 131523Z 36010KT 12SM FEW015 BKN020 BKN080 OVC200 17/11 A3015 NOSIG RMK 8/837 HZY BINOVC=','(XA-ACN) Heavy wind at the beginning and birds at the end.'),(43,'D:\\Luis Alejandro\\Doctorate (Ph.D)\\Data\\Measurements (Ph.D)\\2013-09-13\\35.tdms',7,1,1,'METAR MMMX 131523Z 36010KT 12SM FEW015 BKN020 BKN080 OVC200 17/11 A3015 NOSIG RMK 8/837 HZY BINOVC=','(XA-MKH) Birds and dog barks.'),(44,'D:\\Luis Alejandro\\Doctorate (Ph.D)\\Data\\Measurements (Ph.D)\\2013-09-13\\36.tdms',10,2,2,'METAR MMMX 131523Z 36010KT 12SM FEW015 BKN020 BKN080 OVC200 17/11 A3015 NOSIG RMK 8/837 HZY BINOVC=','(XA-HAM) Wind and car very close at the end.'),(45,'D:\\Luis Alejandro\\Doctorate (Ph.D)\\Data\\Measurements (Ph.D)\\2013-09-13\\37.tdms',9,2,2,'METAR MMMX 131523Z 36010KT 12SM FEW015 BKN020 BKN080 OVC200 17/11 A3015 NOSIG RMK 8/837 HZY BINOVC=','(XA-AMB) Wind at the beginning and impulsive noises.'),(46,'D:\\Luis Alejandro\\Doctorate (Ph.D)\\Data\\Measurements (Ph.D)\\2013-09-13\\38.tdms',10,3,2,'METAR MMMX 131523Z 36010KT 12SM FEW015 BKN020 BKN080 OVC200 17/11 A3015 NOSIG RMK 8/837 HZY BINOVC=','(N126AM) Car and birds at the beginning and weird noises at the end.'),(47,'D:\\Luis Alejandro\\Doctorate (Ph.D)\\Data\\Measurements (Ph.D)\\2013-09-13\\39.tdms',1,2,1,'METAR MMMX 131523Z 36010KT 12SM FEW015 BKN020 BKN080 OVC200 17/11 A3015 NOSIG RMK 8/837 HZY BINOVC=','(XA-VFI) Birds, dog barks and light noise at the beginning.'),(48,'D:\\Luis Alejandro\\Doctorate (Ph.D)\\Data\\Measurements (Ph.D)\\2013-09-13\\40.tdms',9,2,2,'METAR MMMX 131523Z 36010KT 12SM FEW015 BKN020 BKN080 OVC200 17/11 A3015 NOSIG RMK 8/837 HZY BINOVC=','(HP-1716CMP) Birds at the beginning and bells at the end as well as wind.'),(49,'D:\\Luis Alejandro\\Doctorate (Ph.D)\\Data\\Measurements (Ph.D)\\2013-09-13\\41.tdms',13,3,2,'METAR MMMX 131523Z 36010KT 12SM FEW015 BKN020 BKN080 OVC200 17/11 A3015 NOSIG RMK 8/837 HZY BINOVC=','(XA-FAC) Birds and other noises.'),(50,'D:\\Luis Alejandro\\Doctorate (Ph.D)\\Data\\Measurements (Ph.D)\\2013-09-13\\42.tdms',1,1,1,'METAR MMMX 131546Z 02008KT 10SM FEW015 BKN020 BKN080 OVC200 18/11 A3014 NOSIG RMK 8/832 HZY BINOVC=','(XA-DOS) Birds.'),(51,'D:\\Luis Alejandro\\Doctorate (Ph.D)\\Data\\Measurements (Ph.D)\\2013-09-13\\43.tdms',2,1,1,'METAR MMMX 131546Z 02008KT 10SM FEW015 BKN020 BKN080 OVC200 18/11 A3014 NOSIG RMK 8/832 HZY BINOVC=','(N520VL) Birds all time.'),(52,'D:\\Luis Alejandro\\Doctorate (Ph.D)\\Data\\Measurements (Ph.D)\\2013-09-13\\44.tdms',6,2,1,'METAR MMMX 131546Z 02008KT 10SM FEW015 BKN020 BKN080 OVC200 18/11 A3014 NOSIG RMK 8/832 HZY BINOVC=','(XA-TRI) Noises at the beginning and moderate wind.'),(53,'D:\\Luis Alejandro\\Doctorate (Ph.D)\\Data\\Measurements (Ph.D)\\2013-09-13\\45.tdms',5,2,1,'METAR MMMX 131546Z 02008KT 10SM FEW015 BKN020 BKN080 OVC200 18/11 A3014 NOSIG RMK 8/832 HZY BINOVC=','(XA-SJJ) Birds all time and a car.'),(54,'D:\\Luis Alejandro\\Doctorate (Ph.D)\\Data\\Measurements (Ph.D)\\2013-09-13\\46.tdms',6,2,1,'METAR MMMX 131546Z 02008KT 10SM FEW015 BKN020 BKN080 OVC200 18/11 A3014 NOSIG RMK 8/832 HZY BINOVC=','(XA-TAH) Birds all time and voices.'),(55,'D:\\Luis Alejandro\\Doctorate (Ph.D)\\Data\\Measurements (Ph.D)\\2013-09-13\\47.tdms',9,2,2,'METAR MMMX 131546Z 02008KT 10SM FEW015 BKN020 BKN080 OVC200 18/11 A3014 NOSIG RMK 8/832 HZY BINOVC=','(N359AM) Moderate wind at the beginning and light at the end.'),(56,'D:\\Luis Alejandro\\Doctorate (Ph.D)\\Data\\Measurements (Ph.D)\\2013-09-13\\48.tdms',13,2,2,'METAR MMMX 131546Z 02008KT 10SM FEW015 BKN020 BKN080 OVC200 18/11 A3014 NOSIG RMK 8/832 HZY BINOVC=','(XA-IAC) Low noises and birds.'),(57,'D:\\Luis Alejandro\\Doctorate (Ph.D)\\Data\\Measurements (Ph.D)\\2013-09-13\\49.tdms',1,1,1,'METAR MMMX 131546Z 02008KT 10SM FEW015 BKN020 BKN080 OVC200 18/11 A3014 NOSIG RMK 8/832 HZY BINOVC=','(XA-ECO) Moderate wind at the end.'),(58,'D:\\Luis Alejandro\\Doctorate (Ph.D)\\Data\\Measurements (Ph.D)\\2013-09-13\\50.tdms',1,1,1,'METAR MMMX 131546Z 02008KT 10SM FEW015 BKN020 BKN080 OVC200 18/11 A3014 NOSIG RMK 8/832 HZY BINOVC=','(XA-ROA) Weird noise at the very beginning and light wind at the end.'),(59,'D:\\Luis Alejandro\\Doctorate (Ph.D)\\Data\\Measurements (Ph.D)\\2013-09-13\\51.tdms',4,3,1,'METAR MMMX 131546Z 02008KT 10SM FEW015 BKN020 BKN080 OVC200 18/11 A3014 NOSIG RMK 8/832 HZY BINOVC=','(XA-VOC) Moderate wind at the beginning and very noisy at the end.'),(60,'D:\\Luis Alejandro\\Doctorate (Ph.D)\\Data\\Measurements (Ph.D)\\2013-09-13\\52.tdms',11,2,1,'METAR MMMX 131546Z 02008KT 10SM FEW015 BKN020 BKN080 OVC200 18/11 A3014 NOSIG RMK 8/832 HZY BINOVC=','(XA-ZAC) Aircraft taxiing and unknown noises at the end.'),(61,'D:\\Luis Alejandro\\Doctorate (Ph.D)\\Data\\Measurements (Ph.D)\\2013-09-13\\53.tdms',10,3,2,'METAR MMMX 131546Z 02008KT 10SM FEW015 BKN020 BKN080 OVC200 18/11 A3014 NOSIG RMK 8/832 HZY BINOVC=','(XA-CAM) Other aircraft background noises.'),(62,'D:\\Luis Alejandro\\Doctorate (Ph.D)\\Data\\Measurements (Ph.D)\\2013-09-13\\54.tdms',13,2,2,'METAR MMMX 131546Z 02008KT 10SM FEW015 BKN020 BKN080 OVC200 18/11 A3014 NOSIG RMK 8/832 HZY BINOVC=','(XA-ACM) Cars, wind and other aircrafts noises.'),(64,'D:\\Luis Alejandro\\Doctorate (Ph.D)\\Data\\Measurements (Ph.D)\\2013-09-13\\57.tdms',1,1,1,'METAR MMMX 131546Z 02008KT 10SM FEW015 BKN020 BKN080 OVC200 18/11 A3014 NOSIG RMK 8/832 HZY BINOVC=','(XA-SOB) Low bird noises.'),(65,'D:\\Luis Alejandro\\Doctorate (Ph.D)\\Data\\Measurements (Ph.D)\\2013-09-13\\59.tdms',9,1,1,'METAR MMMX 131546Z 02008KT 10SM FEW015 BKN020 BKN080 OVC200 18/11 A3014 NOSIG RMK 8/832 HZY BINOVC=','(N835NN) Birds and aircraft noises at the end.'),(66,'D:\\Luis Alejandro\\Doctorate (Ph.D)\\Data\\Measurements (Ph.D)\\2013-09-13\\60.tdms',10,1,2,'METAR MMMX 131546Z 02008KT 10SM FEW015 BKN020 BKN080 OVC200 18/11 A3014 NOSIG RMK 8/832 HZY BINOVC=','(N853AM) Moderate wind and birds at the end.'),(67,'D:\\Luis Alejandro\\Doctorate (Ph.D)\\Data\\Measurements (Ph.D)\\2013-09-13\\62.tdms',10,2,2,'METAR MMMX 131546Z 02008KT 10SM FEW015 BKN020 BKN080 OVC200 18/11 A3014 NOSIG RMK 8/832 HZY BINOVC=','(XA-NAM) Moderate wind and other noises.'),(68,'D:\\Luis Alejandro\\Doctorate (Ph.D)\\Data\\Measurements (Ph.D)\\2013-09-13\\63.tdms',1,1,1,'METAR MMMX 131546Z 02008KT 10SM FEW015 BKN020 BKN080 OVC200 18/11 A3014 NOSIG RMK 8/832 HZY BINOVC=','(XA-TLC) Birds and other aircraft noises.'),(69,'D:\\Luis Alejandro\\Doctorate (Ph.D)\\Data\\Measurements (Ph.D)\\2013-09-13\\64.tdms',11,3,1,'METAR MMMX 131546Z 02008KT 10SM FEW015 BKN020 BKN080 OVC200 18/11 A3014 NOSIG RMK 8/832 HZY BINOVC=','(N11189) Aircraft taxiing very close.'),(70,'D:\\Luis Alejandro\\Doctorate (Ph.D)\\Data\\Measurements (Ph.D)\\2013-09-13\\65.tdms',11,3,1,'METAR MMMX 131546Z 02008KT 10SM FEW015 BKN020 BKN080 OVC200 18/11 A3014 NOSIG RMK 8/832 HZY BINOVC=','(XA-RAC) Unkown noises very loud.'),(71,'D:\\Luis Alejandro\\Doctorate (Ph.D)\\Data\\Measurements (Ph.D)\\2013-09-13\\66.tdms',6,1,1,'METAR MMMX 131546Z 02008KT 10SM FEW015 BKN020 BKN080 OVC200 18/11 A3014 NOSIG RMK 8/832 HZY BINOVC=','(XA-TPS) Unkown background noise.'),(72,'D:\\Luis Alejandro\\Doctorate (Ph.D)\\Data\\Measurements (Ph.D)\\2013-09-13\\67.tdms',6,3,2,'SPECI MMMX 131625Z 35008KT 7SM -RA FEW015 BKN020 OVC070 18/11 A3014 NOSIG RMK 8/87/ HZY -RAB22=','(XA-TPR) Heavy wind all time.'),(73,'D:\\Luis Alejandro\\Doctorate (Ph.D)\\Data\\Measurements (Ph.D)\\2013-09-13\\68.tdms',12,2,2,'SPECI MMMX 131625Z 35008KT 7SM -RA FEW015 BKN020 OVC070 18/11 A3014 NOSIG RMK 8/87/ HZY -RAB22=','(XA-ACP) Light wind and other noises.'),(74,'D:\\Luis Alejandro\\Doctorate (Ph.D)\\Data\\Measurements (Ph.D)\\2013-09-13\\69.tdms',5,3,2,'SPECI MMMX 131625Z 35008KT 7SM -RA FEW015 BKN020 OVC070 18/11 A3014 NOSIG RMK 8/87/ HZY -RAB22=','(XA-SYH) Heavy wind and other noises.'),(75,'D:\\Luis Alejandro\\Doctorate (Ph.D)\\Data\\Measurements (Ph.D)\\2013-09-13\\70.tdms',10,3,2,'SPECI MMMX 131625Z 35008KT 7SM -RA FEW015 BKN020 OVC070 18/11 A3014 NOSIG RMK 8/87/ HZY -RAB22=','(N842AM) Moderate wind.'),(76,'D:\\Luis Alejandro\\Doctorate (Ph.D)\\Data\\Measurements (Ph.D)\\2013-09-13\\71.tdms',11,3,2,'SPECI MMMX 131625Z 35008KT 7SM -RA FEW015 BKN020 OVC070 18/11 A3014 NOSIG RMK 8/87/ HZY -RAB22=','(XA-BLI) Moderate wind and other noises.'),(77,'D:\\Luis Alejandro\\Doctorate (Ph.D)\\Data\\Measurements (Ph.D)\\2013-09-13\\72.tdms',10,3,2,'SPECI MMMX 131625Z 35008KT 7SM -RA FEW015 BKN020 OVC070 18/11 A3014 NOSIG RMK 8/87/ HZY -RAB22=','(EI-DRE) Unkown background noise and loud noises at the end.'),(78,'D:\\Luis Alejandro\\Doctorate (Ph.D)\\Data\\Measurements (Ph.D)\\2013-09-13\\74.tdms',9,1,2,'SPECI MMMX 131625Z 35008KT 7SM -RA FEW015 BKN020 OVC070 18/11 A3014 NOSIG RMK 8/87/ HZY -RAB22=','(XA-JOY) Moderate wind.'),(79,'D:\\Luis Alejandro\\Doctorate (Ph.D)\\Data\\Measurements (Ph.D)\\2013-09-13\\75.tdms',13,3,2,'SPECI MMMX 131625Z 35008KT 7SM -RA FEW015 BKN020 OVC070 18/11 A3014 NOSIG RMK 8/87/ HZY -RAB22=','(XA-MAC) Moderate wind and unkown background noise.'),(80,'D:\\Luis Alejandro\\Doctorate (Ph.D)\\Data\\Measurements (Ph.D)\\2014-02-21\\1.tdms',1,1,1,'METAR MMMX 211422Z 32004KT 8SM SCT200 13/03 A3033 NOSIG RMK 8/001 HZY=','(XA-IJT) Birds at the beginning and voice at the end.'),(81,'D:\\Luis Alejandro\\Doctorate (Ph.D)\\Data\\Measurements (Ph.D)\\2014-02-21\\2.tdms',1,1,1,'METAR MMMX 211422Z 32004KT 8SM SCT200 13/03 A3033 NOSIG RMK 8/001 HZY=','(XA-ABC) Low birds noises and aircraf taxiing.'),(82,'D:\\Luis Alejandro\\Doctorate (Ph.D)\\Data\\Measurements (Ph.D)\\2014-02-21\\3.tdms',4,2,1,'METAR MMMX 211422Z 32004KT 8SM SCT200 13/03 A3033 NOSIG RMK 8/001 HZY=','(XA-VOC) Aircraft taxiing very close and loud all time.'),(83,'D:\\Luis Alejandro\\Doctorate (Ph.D)\\Data\\Measurements (Ph.D)\\2014-02-21\\4.tdms',1,2,1,'METAR MMMX 211422Z 32004KT 8SM SCT200 13/03 A3033 NOSIG RMK 8/001 HZY=','(XA-BAV) Aircraft taxiing all time.'),(84,'D:\\Luis Alejandro\\Doctorate (Ph.D)\\Data\\Measurements (Ph.D)\\2014-02-21\\5.tdms',2,1,1,'METAR MMMX 211422Z 32004KT 8SM SCT200 13/03 A3033 NOSIG RMK 8/001 HZY=','(XA-VOY) Aircraft taxiing far away and bird and aircraft landing with reverse thrust at the very end.'),(85,'D:\\Luis Alejandro\\Doctorate (Ph.D)\\Data\\Measurements (Ph.D)\\2014-02-21\\6.tdms',14,2,1,'METAR MMMX 211422Z 32004KT 8SM SCT200 13/03 A3033 NOSIG RMK 8/001 HZY=','(N501AA) Birds and aircraft taxiing all time.'),(86,'D:\\Luis Alejandro\\Doctorate (Ph.D)\\Data\\Measurements (Ph.D)\\2014-02-21\\7.tdms',12,2,1,'METAR MMMX 211422Z 32004KT 8SM SCT200 13/03 A3033 NOSIG RMK 8/001 HZY=','(XA-ACQ) Car at the beginnig and other loud noises and a loud scream at the end.'),(87,'D:\\Luis Alejandro\\Doctorate (Ph.D)\\Data\\Measurements (Ph.D)\\2014-02-21\\8.tdms',9,2,1,'METAR MMMX 211422Z 32004KT 8SM SCT200 13/03 A3033 NOSIG RMK 8/001 HZY=','(XA-AMJ) Birds all tiime.'),(88,'D:\\Luis Alejandro\\Doctorate (Ph.D)\\Data\\Measurements (Ph.D)\\2014-02-21\\9.tdms',4,1,1,'METAR MMMX 211422Z 32004KT 8SM SCT200 13/03 A3033 NOSIG RMK 8/001 HZY=','(XA-VOL) Birds all tiime.'),(89,'D:\\Luis Alejandro\\Doctorate (Ph.D)\\Data\\Measurements (Ph.D)\\2014-02-21\\10.tdms',9,1,1,'METAR MMMX 211422Z 32004KT 8SM SCT200 13/03 A3033 NOSIG RMK 8/001 HZY=','(XA-AMA) Birds all tiime.'),(90,'D:\\Luis Alejandro\\Doctorate (Ph.D)\\Data\\Measurements (Ph.D)\\2014-02-21\\11.tdms',11,3,1,'METAR MMMX 211422Z 32004KT 8SM SCT200 13/03 A3033 NOSIG RMK 8/001 HZY=','(XA-FLI) Aircraft taxiing very close and loud. Very bad quality. Loud aircraft noises all time.'),(91,'D:\\Luis Alejandro\\Doctorate (Ph.D)\\Data\\Measurements (Ph.D)\\2014-02-21\\12.tdms',8,2,1,'METAR MMMX 211422Z 32004KT 8SM SCT200 13/03 A3033 NOSIG RMK 8/001 HZY=','(XA-VIQ) Aircraft taxiing all time and car at the end.'),(92,'D:\\Luis Alejandro\\Doctorate (Ph.D)\\Data\\Measurements (Ph.D)\\2014-02-21\\13.tdms',10,3,1,'METAR MMMX 211422Z 32004KT 8SM SCT200 13/03 A3033 NOSIG RMK 8/001 HZY=','(N906AM) Aircraft taxiing and car at the end.'),(93,'D:\\Luis Alejandro\\Doctorate (Ph.D)\\Data\\Measurements (Ph.D)\\2014-02-21\\14.tdms',1,2,1,'METAR MMMX 211422Z 32004KT 8SM SCT200 13/03 A3033 NOSIG RMK 8/001 HZY=','(XA-ACO) Weird noises at the beginning and birds.'),(94,'D:\\Luis Alejandro\\Doctorate (Ph.D)\\Data\\Measurements (Ph.D)\\2014-02-21\\15.tdms',11,3,1,'METAR MMMX 211422Z 32004KT 8SM SCT200 13/03 A3033 NOSIG RMK 8/001 HZY=','(XA-ELI) Aircraft taxiing all time.'),(95,'D:\\Luis Alejandro\\Doctorate (Ph.D)\\Data\\Measurements (Ph.D)\\2014-02-21\\16.tdms',4,1,1,'METAR MMMX 211447Z 01003KT 7SM FEW200 14/02 A3034 NOSIG RMK SLP113 52015 916 8/001 HZY=','(N502VL) Impulsive weird noises and birds.'),(96,'D:\\Luis Alejandro\\Doctorate (Ph.D)\\Data\\Measurements (Ph.D)\\2014-02-21\\17.tdms',8,1,1,'METAR MMMX 211447Z 01003KT 7SM FEW200 14/02 A3034 NOSIG RMK SLP113 52015 916 8/001 HZY=','(XA-UQX) Birds.'),(97,'D:\\Luis Alejandro\\Doctorate (Ph.D)\\Data\\Measurements (Ph.D)\\2014-02-21\\18.tdms',11,3,1,'METAR MMMX 211447Z 01003KT 7SM FEW200 14/02 A3034 NOSIG RMK SLP113 52015 916 8/001 HZY=','(XA-YAC) Aircraft taxiing very close and loud.'),(98,'D:\\Luis Alejandro\\Doctorate (Ph.D)\\Data\\Measurements (Ph.D)\\2014-02-21\\19.tdms',9,2,1,'METAR MMMX 211447Z 01003KT 7SM FEW200 14/02 A3034 NOSIG RMK SLP113 52015 916 8/001 HZY=','(N910NN) Aircrafts taxiing.'),(99,'D:\\Luis Alejandro\\Doctorate (Ph.D)\\Data\\Measurements (Ph.D)\\2014-02-21\\20.tdms',6,3,1,'METAR MMMX 211447Z 01003KT 7SM FEW200 14/02 A3034 NOSIG RMK SLP113 52015 916 8/001 HZY=','(XA-TPS) Aircrafts taxiing very close.'),(100,'D:\\Luis Alejandro\\Doctorate (Ph.D)\\Data\\Measurements (Ph.D)\\2014-02-21\\21.tdms',12,2,2,'METAR MMMX 211447Z 01003KT 7SM FEW200 14/02 A3034 NOSIG RMK SLP113 52015 916 8/001 HZY=','(XA-ACX) Birds.'),(101,'D:\\Luis Alejandro\\Doctorate (Ph.D)\\Data\\Measurements (Ph.D)\\2014-02-21\\22.tdms',10,1,1,'METAR MMMX 211447Z 01003KT 7SM FEW200 14/02 A3034 NOSIG RMK SLP113 52015 916 8/001 HZY=','(XA-CTG) Birds.'),(102,'D:\\Luis Alejandro\\Doctorate (Ph.D)\\Data\\Measurements (Ph.D)\\2014-02-21\\23.tdms',17,2,2,'METAR MMMX 211447Z 01003KT 7SM FEW200 14/02 A3034 NOSIG RMK SLP113 52015 916 8/001 HZY=','(N961AM) Birds and other low noises.'),(103,'D:\\Luis Alejandro\\Doctorate (Ph.D)\\Data\\Measurements (Ph.D)\\2014-02-21\\24.tdms',1,1,1,'METAR MMMX 211447Z 01003KT 7SM FEW200 14/02 A3034 NOSIG RMK SLP113 52015 916 8/001 HZY=','(XA-MTO) Aircraft taxiing at the end.'),(104,'D:\\Luis Alejandro\\Doctorate (Ph.D)\\Data\\Measurements (Ph.D)\\2014-02-21\\26.tdms',1,2,1,'METAR MMMX 211447Z 01003KT 7SM FEW200 14/02 A3034 NOSIG RMK SLP113 52015 916 8/001 HZY=','(XA-UHE) Aicraft taxiing at the end.'),(105,'D:\\Luis Alejandro\\Doctorate (Ph.D)\\Data\\Measurements (Ph.D)\\2014-02-21\\28.tdms',11,1,1,'METAR MMMX 211522Z 02005KT 7SM FEW200 15/04 A3035 NOSIG RMK 8/001 HZY=','(XA-TLI) Birds and dog barks at the end.'),(106,'D:\\Luis Alejandro\\Doctorate (Ph.D)\\Data\\Measurements (Ph.D)\\2014-02-21\\29.tdms',13,1,2,'METAR MMMX 211522Z 02005KT 7SM FEW200 15/04 A3035 NOSIG RMK 8/001 HZY=','(XA-ACI) Birds and voices at the end.'),(107,'D:\\Luis Alejandro\\Doctorate (Ph.D)\\Data\\Measurements (Ph.D)\\2014-02-21\\30.tdms',2,1,1,'METAR MMMX 211522Z 02005KT 7SM FEW200 15/04 A3035 NOSIG RMK 8/001 HZY=','(XA-VOM) Birds.'),(108,'D:\\Luis Alejandro\\Doctorate (Ph.D)\\Data\\Measurements (Ph.D)\\2014-02-21\\31.tdms',1,1,1,'METAR MMMX 211522Z 02005KT 7SM FEW200 15/04 A3035 NOSIG RMK 8/001 HZY=','(XA-VIP) Birds and impulsive noise at the beginning.'),(109,'D:\\Luis Alejandro\\Doctorate (Ph.D)\\Data\\Measurements (Ph.D)\\2014-02-21\\32.tdms',10,2,2,'METAR MMMX 211522Z 02005KT 7SM FEW200 15/04 A3035 NOSIG RMK 8/001 HZY=','(N788XA) Many birds.'),(110,'D:\\Luis Alejandro\\Doctorate (Ph.D)\\Data\\Measurements (Ph.D)\\2014-02-21\\33.tdms',8,1,1,'METAR MMMX 211522Z 02005KT 7SM FEW200 15/04 A3035 NOSIG RMK 8/001 HZY=','(XA-VAD) Low birds noises and voice at the end.'),(111,'D:\\Luis Alejandro\\Doctorate (Ph.D)\\Data\\Measurements (Ph.D)\\2014-02-21\\35.tdms',9,3,2,'METAR MMMX 211522Z 02005KT 7SM FEW200 15/04 A3035 NOSIG RMK 8/001 HZY=','(N27213) Car noises and other impulsive noises.'),(112,'D:\\Luis Alejandro\\Doctorate (Ph.D)\\Data\\Measurements (Ph.D)\\2014-02-21\\36.tdms',8,1,1,'METAR MMMX 211522Z 02005KT 7SM FEW200 15/04 A3035 NOSIG RMK 8/001 HZY=','(UNKNOWN) Dog barks at the end.'),(113,'D:\\Luis Alejandro\\Doctorate (Ph.D)\\Data\\Measurements (Ph.D)\\2014-02-21\\37.tdms',1,2,1,'METAR MMMX 211522Z 02005KT 7SM FEW200 15/04 A3035 NOSIG RMK 8/001 HZY=','(LY-VEX) Birds and dog barks at the end.'),(114,'D:\\Luis Alejandro\\Doctorate (Ph.D)\\Data\\Measurements (Ph.D)\\2014-02-21\\38.tdms',13,2,1,'METAR MMMX 211522Z 02005KT 7SM FEW200 15/04 A3035 NOSIG RMK 8/001 HZY=','(XA-AAC) Dog barks, aircraft taxiing very loud at the end and others.'),(115,'D:\\Luis Alejandro\\Doctorate (Ph.D)\\Data\\Measurements (Ph.D)\\2014-02-21\\39.tdms',15,2,2,'METAR MMMX 211522Z 02005KT 7SM FEW200 15/04 A3035 NOSIG RMK 8/001 HZY=','(UNKNOWN) Birds and dog barks and voices at the very end. (Confirmar TIPO Aeronave)'),(116,'D:\\Luis Alejandro\\Doctorate (Ph.D)\\Data\\Measurements (Ph.D)\\2014-02-21\\40.tdms',8,1,1,'METAR MMMX 211522Z 02005KT 7SM FEW200 15/04 A3035 NOSIG RMK 8/001 HZY=','(XA-VIT) Birds.'),(117,'D:\\Luis Alejandro\\Doctorate (Ph.D)\\Data\\Measurements (Ph.D)\\2014-02-21\\41.tdms',4,2,1,'METAR MMMX 211522Z 02005KT 7SM FEW200 15/04 A3035 NOSIG RMK 8/001 HZY=','(XA-VOG) Birds and impulsive noises at the end.'),(118,'D:\\Luis Alejandro\\Doctorate (Ph.D)\\Data\\Measurements (Ph.D)\\2014-02-21\\42.tdms',4,2,1,'METAR MMMX 211522Z 02005KT 7SM FEW200 15/04 A3035 NOSIG RMK 8/001 HZY=','(N812UA) Dog barks and loud screams.'),(119,'D:\\Luis Alejandro\\Doctorate (Ph.D)\\Data\\Measurements (Ph.D)\\2014-02-21\\43.tdms',9,2,1,'METAR MMMX 211522Z 02005KT 7SM FEW200 15/04 A3035 NOSIG RMK 8/001 HZY=','(HP-1824CMP) People sweeping.'),(120,'D:\\Luis Alejandro\\Doctorate (Ph.D)\\Data\\Measurements (Ph.D)\\2014-02-21\\45.tdms',1,2,1,'METAR MMMX 211547Z 33007KT 7SM FEW200 16/03 A3035 NOSIG RMK 8/001 HZY=','(XA-INJ) Dog barks.'),(121,'D:\\Luis Alejandro\\Doctorate (Ph.D)\\Data\\Measurements (Ph.D)\\2014-02-21\\46.tdms',18,2,2,'METAR MMMX 211547Z 33007KT 7SM FEW200 16/03 A3035 NOSIG RMK 8/001 HZY=','(XA-MAT) People sweeping.'),(122,'D:\\Luis Alejandro\\Doctorate (Ph.D)\\Data\\Measurements (Ph.D)\\2014-02-21\\47.tdms',11,2,1,'METAR MMMX 211547Z 33007KT 7SM FEW200 16/03 A3035 NOSIG RMK 8/001 HZY=','(XA-TAC) Loud birds and impusilve noises, dog barks at the end.'),(123,'D:\\Luis Alejandro\\Doctorate (Ph.D)\\Data\\Measurements (Ph.D)\\2014-02-21\\48.tdms',10,1,1,'METAR MMMX 211547Z 33007KT 7SM FEW200 16/03 A3035 NOSIG RMK 8/001 HZY=','(XA-HAM) Birds.'),(124,'D:\\Luis Alejandro\\Doctorate (Ph.D)\\Data\\Measurements (Ph.D)\\2014-02-21\\50.tdms',10,3,2,'METAR MMMX 211547Z 33007KT 7SM FEW200 16/03 A3035 NOSIG RMK 8/001 HZY=','(XA-MAH) Trucks all time.'),(125,'D:\\Luis Alejandro\\Doctorate (Ph.D)\\Data\\Measurements (Ph.D)\\2014-02-21\\51.tdms',10,2,2,'METAR MMMX 211547Z 33007KT 7SM FEW200 16/03 A3035 NOSIG RMK 8/001 HZY=','(N423AM) Dog barks and birds.'),(126,'D:\\Luis Alejandro\\Doctorate (Ph.D)\\Data\\Measurements (Ph.D)\\2014-02-21\\52.tdms',1,1,1,'METAR MMMX 211547Z 33007KT 7SM FEW200 16/03 A3035 NOSIG RMK 8/001 HZY=','(XA-YES) Scream at the beginning.'),(127,'D:\\Luis Alejandro\\Doctorate (Ph.D)\\Data\\Measurements (Ph.D)\\2014-02-21\\53.tdms',13,3,2,'METAR MMMX 211547Z 33007KT 7SM FEW200 16/03 A3035 NOSIG RMK 8/001 HZY=','(XA-ACN) Helicopter very close.'),(128,'D:\\Luis Alejandro\\Doctorate (Ph.D)\\Data\\Measurements (Ph.D)\\2014-02-21\\54.tdms',2,1,1,'METAR MMMX 211547Z 33007KT 7SM FEW200 16/03 A3035 NOSIG RMK 8/001 HZY=','(N515VL) Birds.'),(129,'D:\\Luis Alejandro\\Doctorate (Ph.D)\\Data\\Measurements (Ph.D)\\2014-02-21\\55.tdms',13,3,2,'METAR MMMX 211547Z 33007KT 7SM FEW200 16/03 A3035 NOSIG RMK 8/001 HZY=','(XA-GAD) Aicraft taxiing very close.'),(130,'D:\\Luis Alejandro\\Doctorate (Ph.D)\\Data\\Measurements (Ph.D)\\2014-02-21\\56.tdms',10,2,2,'METAR MMMX 211547Z 33007KT 7SM FEW200 16/03 A3035 NOSIG RMK 8/001 HZY=','(N126AM) Birds.'),(131,'D:\\Luis Alejandro\\Doctorate (Ph.D)\\Data\\Measurements (Ph.D)\\2014-02-21\\57.tdms',9,2,2,'METAR MMMX 211547Z 33007KT 7SM FEW200 16/03 A3035 NOSIG RMK 8/001 HZY=','(XA-AMK) Birds, dog barks and weird noises.'),(132,'D:\\Luis Alejandro\\Doctorate (Ph.D)\\Data\\Measurements (Ph.D)\\2014-02-21\\58.tdms',16,1,1,'METAR MMMX 211547Z 33007KT 7SM FEW200 16/03 A3035 NOSIG RMK 8/001 HZY=','(XA-JLG) Some birds at the beginning.'),(133,'D:\\Luis Alejandro\\Doctorate (Ph.D)\\Data\\Measurements (Ph.D)\\2014-02-21\\59.tdms',1,2,1,'METAR MMMX 211547Z 33007KT 7SM FEW200 16/03 A3035 NOSIG RMK 8/001 HZY=','(XA-WAB) Aircraft taxiing at the end very close.'),(134,'D:\\Luis Alejandro\\Doctorate (Ph.D)\\Data\\Measurements (Ph.D)\\2014-02-21\\60.tdms',10,2,2,'METAR MMMX 211547Z 33007KT 7SM FEW200 16/03 A3035 NOSIG RMK 8/001 HZY=','(N784XA) Aircraft taxiing at the end.'),(135,'D:\\Luis Alejandro\\Doctorate (Ph.D)\\Data\\Measurements (Ph.D)\\2014-02-21\\61.tdms',2,2,2,'METAR MMMX 211547Z 33007KT 7SM FEW200 16/03 A3035 NOSIG RMK 8/001 HZY=','(N484UA) Weird noises all time.'),(136,'D:\\Luis Alejandro\\Doctorate (Ph.D)\\Data\\Measurements (Ph.D)\\2014-02-21\\62.tdms',13,3,2,'METAR MMMX 211547Z 33007KT 7SM FEW200 16/03 A3035 NOSIG RMK 8/001 HZY=','(XA-ACM) Several cars and many impulsive noises'),(137,'D:\\Luis Alejandro\\Doctorate (Ph.D)\\Data\\Measurements (Ph.D)\\2014-02-21\\63.tdms',16,1,1,'METAR MMMX 211547Z 33007KT 7SM FEW200 16/03 A3035 NOSIG RMK 8/001 HZY=','(XA-IJR) Birds'),(138,'D:\\Luis Alejandro\\Doctorate (Ph.D)\\Data\\Measurements (Ph.D)\\2014-02-21\\64.tdms',9,3,1,'METAR MMMX 211547Z 33007KT 7SM FEW200 16/03 A3035 NOSIG RMK 8/001 HZY=','(UNKNOWN) Hay que confirmar tipo de aeronave'),(139,'D:\\Luis Alejandro\\Doctorate (Ph.D)\\Data\\Measurements (Ph.D)\\2014-02-21\\65.tdms',9,2,2,'METAR MMMX 211547Z 33007KT 7SM FEW200 16/03 A3035 NOSIG RMK 8/001 HZY=','(N3736C) Voices at the beginning and other noises'),(140,'D:\\Luis Alejandro\\Doctorate (Ph.D)\\Data\\Measurements (Ph.D)\\2014-02-21\\66.tdms',1,1,1,'METAR MMMX 211547Z 33007KT 7SM FEW200 16/03 A3035 NOSIG RMK 8/001 HZY=','(XA-JAV)'),(141,'D:\\Luis Alejandro\\Doctorate (Ph.D)\\Data\\Measurements (Ph.D)\\2014-02-21\\67.tdms',10,1,1,'METAR MMMX 211547Z 33007KT 7SM FEW200 16/03 A3035 NOSIG RMK 8/001 HZY=','(EI-DRD) Birds all time.'),(142,'D:\\Luis Alejandro\\Doctorate (Ph.D)\\Data\\Measurements (Ph.D)\\2014-02-21\\68.tdms',19,2,2,'METAR MMMX 211547Z 33007KT 7SM FEW200 16/03 A3035 NOSIG RMK 8/001 HZY=','(N850GT) Birds and dog barks.'),(143,'D:\\Luis Alejandro\\Doctorate (Ph.D)\\Data\\Measurements (Ph.D)\\2014-02-21\\69.tdms',2,2,2,'METAR MMMX 211547Z 33007KT 7SM FEW200 16/03 A3035 NOSIG RMK 8/001 HZY=','(N463UA) Birds and dog barks.'),(144,'D:\\Luis Alejandro\\Doctorate (Ph.D)\\Data\\Measurements (Ph.D)\\2014-02-21\\70.tdms',6,2,1,'METAR MMMX 211547Z 33007KT 7SM FEW200 16/03 A3035 NOSIG RMK 8/001 HZY=','(XA-TAH) Birds and dog barks.'),(145,'D:\\Luis Alejandro\\Doctorate (Ph.D)\\Data\\Measurements (Ph.D)\\2014-02-21\\71.tdms',10,1,2,'METAR MMMX 211646Z 02005KT 6SM FEW200 17/04 A3034 NOSIG RMK','(N842AM) Birds and dog barks.'),(146,'D:\\Luis Alejandro\\Doctorate (Ph.D)\\Data\\Measurements (Ph.D)\\2014-02-21\\72.tdms',13,1,2,'METAR MMMX 211646Z 02005KT 6SM FEW200 17/04 A3034 NOSIG RMK','(XA-HAC) Birds and dog barks.'),(147,'D:\\Luis Alejandro\\Doctorate (Ph.D)\\Data\\Measurements (Ph.D)\\2014-02-21\\73.tdms',13,1,2,'METAR MMMX 211646Z 02005KT 6SM FEW200 17/04 A3034 NOSIG RMK 8/001 HZY=','(XA-EAC) Car, birds and dog barks at the end.'),(148,'D:\\Luis Alejandro\\Doctorate (Ph.D)\\Data\\Measurements (Ph.D)\\2014-02-21\\74.tdms',11,1,2,'METAR MMMX 211646Z 02005KT 6SM FEW200 17/04 A3034 NOSIG RMK 8/001 HZY=','(XA-WAC) Birds and dog barks.'),(149,'D:\\Luis Alejandro\\Doctorate (Ph.D)\\Data\\Measurements (Ph.D)\\2014-02-21\\75.tdms',2,1,1,'METAR MMMX 211646Z 02005KT 6SM FEW200 17/04 A3034 NOSIG RMK 8/001 HZY=','(N507VL)'),(150,'D:\\Luis Alejandro\\Doctorate (Ph.D)\\Data\\Measurements (Ph.D)\\2014-02-21\\76.tdms',1,1,1,'METAR MMMX 211646Z 02005KT 6SM FEW200 17/04 A3034 NOSIG RMK 8/001 HZY=','(XA-ALM) Dog barks at the end.'),(151,'D:\\Luis Alejandro\\Doctorate (Ph.D)\\Data\\Measurements (Ph.D)\\2014-02-21\\77.tdms',12,1,1,'METAR MMMX 211646Z 02005KT 6SM FEW200 17/04 A3034 NOSIG RMK 8/001 HZY=','(XA-ACP) Dog barks.'),(152,'D:\\Luis Alejandro\\Doctorate (Ph.D)\\Data\\Measurements (Ph.D)\\2014-02-21\\79.tdms',6,1,1,'METAR MMMX 211646Z 02005KT 6SM FEW200 17/04 A3034 NOSIG RMK 8/001 HZY=','(XA-TAI) Birds.'),(153,'D:\\Luis Alejandro\\Doctorate (Ph.D)\\Data\\Measurements (Ph.D)\\2014-02-21\\80.tdms',13,1,2,'METAR MMMX 211646Z 02005KT 6SM FEW200 17/04 A3034 NOSIG RMK 8/001 HZY=','(XA-IAC) Dog barks and birds.'),(154,'D:\\Luis Alejandro\\Doctorate (Ph.D)\\Data\\Measurements (Ph.D)\\2014-02-21\\81.tdms',9,1,2,'METAR MMMX 211646Z 02005KT 6SM FEW200 17/04 A3034 NOSIG RMK 8/001 HZY=','(XA-AME) Dog barks and car at the beginning.'),(155,'D:\\Luis Alejandro\\Doctorate (Ph.D)\\Data\\Measurements (Ph.D)\\2014-02-21\\82.tdms',10,1,2,'METAR MMMX 211646Z 02005KT 6SM FEW200 17/04 A3034 NOSIG RMK 8/001 HZY=','(N908AM) Dog barks and birds.'),(156,'D:\\Luis Alejandro\\Doctorate (Ph.D)\\Data\\Measurements (Ph.D)\\2014-02-21\\83.tdms',9,1,2,'METAR MMMX 211646Z 02005KT 6SM FEW200 17/04 A3034 NOSIG RMK 8/001 HZY=','(EI-DRA)'),(157,'D:\\Luis Alejandro\\Doctorate (Ph.D)\\Data\\Measurements (Ph.D)\\2014-02-21\\84.tdms',1,1,1,'METAR MMMX 211646Z 02005KT 6SM FEW200 17/04 A3034 NOSIG RMK 8/001 HZY=','(XA-ROA)'),(158,'D:\\Luis Alejandro\\Doctorate (Ph.D)\\Data\\Measurements (Ph.D)\\2014-02-21\\85.tdms',16,1,1,'METAR MMMX 211646Z 02005KT 6SM FEW200 17/04 A3034 NOSIG RMK 8/001 HZY=','(XA-NSG) Aircraft taxiing at the end.'),(159,'D:\\Luis Alejandro\\Doctorate (Ph.D)\\Data\\Measurements (Ph.D)\\2014-02-21\\86.tdms',1,1,1,'METAR MMMX 211646Z 02005KT 6SM FEW200 17/04 A3034 NOSIG RMK 8/001 HZY=','(XA-TLC) Dog barks.'),(160,'D:\\Luis Alejandro\\Doctorate (Ph.D)\\Data\\Measurements (Ph.D)\\2014-02-21\\87.tdms',11,2,1,'METAR MMMX 211646Z 02005KT 6SM FEW200 17/04 A3034 NOSIG RMK 8/001 HZY=','(XA-QLI) Dog barks all time and weird noise at the very beginning.'),(161,'D:\\Luis Alejandro\\Doctorate (Ph.D)\\Data\\Measurements (Ph.D)\\2014-02-21\\88.tdms',13,1,1,'METAR MMMX 211646Z 02005KT 6SM FEW200 17/04 A3034 NOSIG RMK 8/001 HZY=','(XA-ACK)'),(162,'D:\\Luis Alejandro\\Doctorate (Ph.D)\\Data\\Measurements (Ph.D)\\2014-02-21\\90.tdms',13,1,2,'METAR MMMX 211646Z 02005KT 6SM FEW200 17/04 A3034 NOSIG RMK 8/001 HZY=','(XA-MAC) Birds.'),(163,'D:\\Luis Alejandro\\Doctorate (Ph.D)\\Data\\Measurements (Ph.D)\\2014-02-21\\91.tdms',13,3,2,'METAR MMMX 211646Z 02005KT 6SM FEW200 17/04 A3034 NOSIG RMK 8/001 HZY=','(XA-CAC) Bells almost all time.'),(164,'D:\\Luis Alejandro\\Doctorate (Ph.D)\\Data\\Measurements (Ph.D)\\2014-02-21\\92.tdms',13,2,2,'METAR MMMX 211646Z 02005KT 6SM FEW200 17/04 A3034 NOSIG RMK 8/001 HZY=','(XA-ACJ) Car at the middle and dog barks and impusilve noise at the end.'),(165,'D:\\Luis Alejandro\\Doctorate (Ph.D)\\Data\\Measurements (Ph.D)\\2014-02-21\\93.tdms',20,1,1,'METAR MMMX 211646Z 02005KT 6SM FEW200 17/04 A3034 NOSIG RMK 8/001 HZY=','(LX-ECV)'),(166,'D:\\Luis Alejandro\\Doctorate (Ph.D)\\Data\\Measurements (Ph.D)\\2014-02-21\\94.tdms',10,1,1,'SPECI MMMX 211745Z 33006KT 6SM FEW200 19/03 A3031 NOSIG RMK 8/001 HZY=','(N857AM) Birds and dog barks.'),(167,'D:\\Luis Alejandro\\Doctorate (Ph.D)\\Data\\Measurements (Ph.D)\\2014-02-21\\95.tdms',8,2,1,'SPECI MMMX 211745Z 33006KT 6SM FEW200 19/03 A3031 NOSIG RMK 8/001 HZY=','(XA-VAB) Car at the end.'),(168,'D:\\Luis Alejandro\\Doctorate (Ph.D)\\Data\\Measurements (Ph.D)\\2014-02-21\\97.tdms',11,1,1,'SPECI MMMX 211745Z 33006KT 6SM FEW200 19/03 A3031 NOSIG RMK 8/001 HZY=','(N14186) Aircraft taxiing at the end.'),(169,'D:\\Luis Alejandro\\Doctorate (Ph.D)\\Data\\Measurements (Ph.D)\\2014-02-21\\98.tdms',21,3,2,'SPECI MMMX 211745Z 33006KT 6SM FEW200 19/03 A3031 NOSIG RMK 8/001 HZY=','(XA-UTF) Aircraft taxiing all time and cars.'),(170,'D:\\Luis Alejandro\\Doctorate (Ph.D)\\Data\\Measurements (Ph.D)\\2014-02-21\\100.tdms',11,1,1,'SPECI MMMX 211745Z 33006KT 6SM FEW200 19/03 A3031 NOSIG RMK 8/001 HZY=','(XA-FLI) Birds.'),(171,'D:\\Luis Alejandro\\Doctorate (Ph.D)\\Data\\Measurements (Ph.D)\\2014-02-21\\101.tdms',7,1,1,'SPECI MMMX 211745Z 33006KT 6SM FEW200 19/03 A3031 NOSIG RMK 8/001 HZY=','(XA-NLP) Car at the end.'),(172,'D:\\Luis Alejandro\\Doctorate (Ph.D)\\Data\\Measurements (Ph.D)\\2014-02-21\\102.tdms',1,1,1,'SPECI MMMX 211745Z 33006KT 6SM FEW200 19/03 A3031 NOSIG RMK 8/001 HZY=','(XA-ZIH) Birds.'),(173,'D:\\Luis Alejandro\\Doctorate (Ph.D)\\Data\\Measurements (Ph.D)\\2014-02-21\\103.tdms',1,1,1,'SPECI MMMX 211745Z 33006KT 6SM FEW200 19/03 A3031 NOSIG RMK 8/001 HZY=','(XA-SUN) Birds.'),(174,'D:\\Luis Alejandro\\Doctorate (Ph.D)\\Data\\Measurements (Ph.D)\\2014-02-21\\104.tdms',10,3,2,'METAR MMMX 211747Z 34007KT 6SM FEW200 19/02 A3031 NOSIG RMK SLP100 54000 925 8/001 HZY=','(XA-GMV) Cars and dog barks.'),(175,'D:\\Luis Alejandro\\Doctorate (Ph.D)\\Data\\Measurements (Ph.D)\\2014-02-21\\105.tdms',10,1,2,'METAR MMMX 211747Z 34007KT 6SM FEW200 19/02 A3031 NOSIG RMK SLP100 54000 925 8/001 HZY=','(EI-DRE) Birds.'),(176,'D:\\Luis Alejandro\\Doctorate (Ph.D)\\Data\\Measurements (Ph.D)\\2014-02-21\\106.tdms',12,1,1,'METAR MMMX 211747Z 34007KT 6SM FEW200 19/02 A3031 NOSIG RMK SLP100 54000 925 8/001 HZY=','(XA-SAC) Aircraft taxiing at the end.'),(177,'D:\\Luis Alejandro\\Doctorate (Ph.D)\\Data\\Measurements (Ph.D)\\2014-02-21\\107.tdms',11,2,1,'METAR MMMX 211747Z 34007KT 6SM FEW200 19/02 A3031 NOSIG RMK SLP100 54000 925 8/001 HZY=','(XA-VLI) Dog barks and birds and aircraft taxiing at the end.'),(178,'D:\\Luis Alejandro\\Doctorate (Ph.D)\\Data\\Measurements (Ph.D)\\2014-02-21\\108.tdms',12,2,2,'METAR MMMX 211747Z 34007KT 6SM FEW200 19/02 A3031 NOSIG RMK SLP100 54000 925 8/001 HZY=','(XA-ACF) Birds.'),(179,'D:\\Luis Alejandro\\Doctorate (Ph.D)\\Data\\Measurements (Ph.D)\\2014-02-21\\109.tdms',1,2,1,'METAR MMMX 211747Z 34007KT 6SM FEW200 19/02 A3031 NOSIG RMK SLP100 54000 925 8/001 HZY=','(XA-VTA) Birds.'),(180,'D:\\Luis Alejandro\\Doctorate (Ph.D)\\Data\\Measurements (Ph.D)\\2014-02-21\\110.tdms',9,2,2,'METAR MMMX 211747Z 34007KT 6SM FEW200 19/02 A3031 NOSIG RMK SLP100 54000 925 8/001 HZY=','(EI-DRC) Birds and impulsive noises at the end.'),(181,'D:\\Luis Alejandro\\Doctorate (Ph.D)\\Data\\Measurements (Ph.D)\\2014-02-21\\111.tdms',2,2,1,'METAR MMMX 211747Z 34007KT 6SM FEW200 19/02 A3031 NOSIG RMK SLP100 54000 925 8/001 HZY=','(N521VL) Birds and voices at the end.'),(182,'D:\\Luis Alejandro\\Doctorate (Ph.D)\\Data\\Measurements (Ph.D)\\2014-02-21\\112.tdms',12,2,2,'METAR MMMX 211747Z 34007KT 6SM FEW200 19/02 A3031 NOSIG RMK SLP100 54000 925 8/001 HZY=','(XA-ACX) Birds and dog barks.'),(183,'D:\\Luis Alejandro\\Doctorate (Ph.D)\\Data\\Measurements (Ph.D)\\2014-02-21\\114.tdms',7,1,1,'METAR MMMX 211747Z 34007KT 6SM FEW200 19/02 A3031 NOSIG RMK SLP100 54000 925 8/001 HZY=','(XA-MKH) Weird noise at the end.'),(184,'D:\\Luis Alejandro\\Doctorate (Ph.D)\\Data\\Measurements (Ph.D)\\2014-02-21\\115.tdms',11,2,1,'METAR MMMX 211747Z 34007KT 6SM FEW200 19/02 A3031 NOSIG RMK SLP100 54000 925 8/001 HZY=','(XA-ACA) Weird noise at the beginning.'),(185,'D:\\Luis Alejandro\\Doctorate (Ph.D)\\Data\\Measurements (Ph.D)\\2014-02-21\\116.tdms',10,2,2,'METAR MMMX 211747Z 34007KT 6SM FEW200 19/02 A3031 NOSIG RMK SLP100 54000 925 8/001 HZY=','(XA-CYM) Many dog barks.'),(186,'D:\\Luis Alejandro\\Doctorate (Ph.D)\\Data\\Measurements (Ph.D)\\2014-02-21\\119.tdms',1,1,1,'METAR MMMX 211747Z 34007KT 6SM FEW200 19/02 A3031 NOSIG RMK SLP100 54000 925 8/001 HZY=','(XA-BIO)'),(187,'D:\\Luis Alejandro\\Doctorate (Ph.D)\\Data\\Measurements (Ph.D)\\2014-02-21\\120.tdms',4,1,1,'METAR MMMX 211747Z 34007KT 6SM FEW200 19/02 A3031 NOSIG RMK SLP100 54000 925 8/001 HZY=','(XA-VOD)'),(188,'D:\\Luis Alejandro\\Doctorate (Ph.D)\\Data\\Measurements (Ph.D)\\2014-02-21\\121.tdms',11,3,2,'METAR MMMX 211747Z 34007KT 6SM FEW200 19/02 A3031 NOSIG RMK SLP100 54000 925 8/001 HZY=','(XA-QAC) Noise and voices and many disturbances.'),(189,'D:\\Luis Alejandro\\Doctorate (Ph.D)\\Data\\Measurements (Ph.D)\\2014-02-21\\122.tdms',22,2,2,'METAR MMMX 211747Z 34007KT 6SM FEW200 19/02 A3031 NOSIG RMK SLP100 54000 925 8/001 HZY=','(EC-JCZ) Impulsive noise at the beginning.');
/*!40000 ALTER TABLE `measurements` ENABLE KEYS */;
UNLOCK TABLES;
/*!40103 SET TIME_ZONE=@OLD_TIME_ZONE */;

/*!40101 SET SQL_MODE=@OLD_SQL_MODE */;
/*!40014 SET FOREIGN_KEY_CHECKS=@OLD_FOREIGN_KEY_CHECKS */;
/*!40014 SET UNIQUE_CHECKS=@OLD_UNIQUE_CHECKS */;
/*!40101 SET CHARACTER_SET_CLIENT=@OLD_CHARACTER_SET_CLIENT */;
/*!40101 SET CHARACTER_SET_RESULTS=@OLD_CHARACTER_SET_RESULTS */;
/*!40101 SET COLLATION_CONNECTION=@OLD_COLLATION_CONNECTION */;
/*!40111 SET SQL_NOTES=@OLD_SQL_NOTES */;

-- Dump completed on 2019-05-14 11:39:23
